{"epoch":1784710044,"count":18256,"objects":[{"id":"26958","name":"PROBA 1","type":"PAYLOAD","l1":"1 26958U 01049B   26202.58435189  .00001265  00000-0  84926-4 0  9996","l2":"2 26958  97.9605 212.3213 0055019   8.2227 351.9889 15.07627925348803"},{"id":"27844","name":"CUTE-1","type":"PAYLOAD","l1":"1 27844U 03031E   26201.96672872  .00000174  00000-0  94328-4 0  9992","l2":"2 27844  98.6745 210.1018 0010867  87.8923 272.3500 14.24353883196486"},{"id":"27848","name":"CUBESAT XI 4","type":"PAYLOAD","l1":"1 27848U 03031J   26202.46414799  .00000171  00000-0  94004-4 0  9992","l2":"2 27848  98.6777 210.2780 0010700 103.0346 257.2027 14.23636890196250"},{"id":"35684","name":"APRIZESAT 4","type":"PAYLOAD","l1":"1 35684U 09041D   26202.17479794  .00000484  00000-0  64382-4 0  9993","l2":"2 35684  98.1399 278.1710 0042608 209.7430 150.1361 14.83919375916405"},{"id":"35686","name":"APRIZESAT 3","type":"PAYLOAD","l1":"1 35686U 09041F   26202.40468459  .00000238  00000-0  26317-4 0  9990","l2":"2 35686  98.2107 357.2780 0060694 315.0936  44.5383 14.96318257921499"},{"id":"36037","name":"PROBA 2","type":"PAYLOAD","l1":"1 36037U 09059B   26202.35302847  .00000124  00000-0  39298-4 0  9998","l2":"2 36037  98.2464  25.2344 0013457 169.7488 190.3986 14.54875313886499"},{"id":"37792","name":"APRIZESAT 5","type":"PAYLOAD","l1":"1 37792U 11044E   26202.59670945  .00000566  00000-0  78900-4 0  9990","l2":"2 37792  98.2447 136.6145 0050743 251.5272 108.0421 14.81134466803884"},{"id":"37793","name":"APRIZESAT 6","type":"PAYLOAD","l1":"1 37793U 11044F   26202.57456081  .00000515  00000-0  80110-4 0  9992","l2":"2 37793  98.2330 113.7726 0042548 337.7541 145.3309 14.76963178802227"},{"id":"39159","name":"PROBA V","type":"PAYLOAD","l1":"1 39159U 13021A   26202.20715615  .00000040  00000-0  35722-4 0  9990","l2":"2 39159  98.3610 179.1385 0005022  45.8408 314.3184 14.23604137685956"},{"id":"39416","name":"APRIZESAT 7","type":"PAYLOAD","l1":"1 39416U 13066A   26202.29962821  .00000867  00000-0  90927-4 0  9992","l2":"2 39416  97.7724 155.0337 0037347  97.8819 262.6641 14.91628724686316"},{"id":"39425","name":"APRIZESAT 8","type":"PAYLOAD","l1":"1 39425U 13066K   26202.30966876  .00000541  00000-0  64447-4 0  9995","l2":"2 39425  97.8232 149.3054 0046022 171.7093 188.4894 14.87702696684745"},{"id":"40014","name":"BUGSAT 1","type":"PAYLOAD","l1":"1 40014U 14033E   26202.62782966  .00003115  00000-0  16487-3 0  9997","l2":"2 40014  98.0422 297.1999 0028846  65.0881 295.3344 15.15920216661058"},{"id":"40016","name":"SAUDISAT 4","type":"PAYLOAD","l1":"1 40016U 14033G   26202.33886952  .00000352  00000-0  53180-4 0  9999","l2":"2 40016  97.7626 347.3013 0043802 323.7391  36.0855 14.79579690651125"},{"id":"40018","name":"APRIZESAT 9","type":"PAYLOAD","l1":"1 40018U 14033J   26202.61927599  .00000447  00000-0  72901-4 0  9992","l2":"2 40018  97.9102 334.9842 0067503  89.7217 271.1727 14.74258239648630"},{"id":"40019","name":"APRIZESAT 10","type":"PAYLOAD","l1":"1 40019U 14033K   26202.34425805  .00000486  00000-0  83888-4 0  9995","l2":"2 40019  97.9688 328.5492 0079205 163.7814 196.5956 14.70916351647273"},{"id":"40076","name":"TDS 1","type":"PAYLOAD","l1":"1 40076U 14037H   26201.94154177  .00005642  00000-0  31728-3 0  9992","l2":"2 40076  98.3837 197.5151 0007337 141.9058 218.2691 15.13727880653335"},{"id":"42829","name":"TECHNOSAT","type":"PAYLOAD","l1":"1 42829U 17042E   26202.42233554  .00001668  00000-0  12097-3 0  9992","l2":"2 42829  97.4324 358.7886 0016854 342.6974  17.3677 15.05132310491859"},{"id":"42831","name":"FLYING LAPTOP","type":"PAYLOAD","l1":"1 42831U 17042G   26202.64506685  .00002120  00000-0  16849-3 0  9990","l2":"2 42831  97.4843 356.8887 0019295  12.0270 348.1412 15.01338550491624"},{"id":"43765","name":"HAWK-A","type":"PAYLOAD","l1":"1 43765U 18099H   26202.40639025  .00005525  00000-0  22034-3 0  9994","l2":"2 43765  97.3892 254.2005 0035337 162.3376 197.9099 15.25016424418313"},{"id":"43794","name":"HAWK-B","type":"PAYLOAD","l1":"1 43794U 18099AN  26202.60049331  .00005568  00000-0  23538-3 0  9990","l2":"2 43794  97.3942 253.7343 0032029 179.4965 180.6310 15.23164138418272"},{"id":"43799","name":"HAWK-C","type":"PAYLOAD","l1":"1 43799U 18099AT  26202.56652674  .00008017  00000-0  28410-3 0  9996","l2":"2 43799  97.3868 255.4422 0040946 161.4729 198.8013 15.28558436419160"},{"id":"46495","name":"SALSAT","type":"PAYLOAD","l1":"1 46495U 20068K   26202.28424147  .00005612  00000-0  19458-3 0  9992","l2":"2 46495  97.8867 207.4380 0009855 171.6754 188.4651 15.30225780320570"},{"id":"47502","name":"HAWK-2C","type":"PAYLOAD","l1":"1 47502U 21006CT  26202.57507515  .00005702  00000-0  16985-3 0  9990","l2":"2 47502  97.2261 246.2039 0008640  82.8925 277.3301 15.35041093304770"},{"id":"47505","name":"HAWK-2A","type":"PAYLOAD","l1":"1 47505U 21006CW  26202.57720994  .00006094  00000-0  18127-3 0  9996","l2":"2 47505  97.2302 246.9037 0008209  86.4993 273.7190 15.35063913304771"},{"id":"47508","name":"HAWK-2B","type":"PAYLOAD","l1":"1 47508U 21006CZ  26202.57019771  .00006457  00000-0  19108-3 0  9996","l2":"2 47508  97.2176 245.1750 0008733  84.7655 275.4585 15.35195414304773"},{"id":"48931","name":"HAWK-3B","type":"PAYLOAD","l1":"1 48931U 21059BE  26202.52919669  .00045439  00000-0  34397-3 0  9995","l2":"2 48931  97.6636  42.5580 0004947 176.4381 183.6918 15.72272829283242"},{"id":"48948","name":"HAWK-3C","type":"PAYLOAD","l1":"1 48948U 21059BX  26202.52887895  .00043405  00000-0  32868-3 0  9990","l2":"2 48948  97.6749  48.3011 0005324 176.3100 183.8203 15.72270850283247"},{"id":"48957","name":"HAWK-3A","type":"PAYLOAD","l1":"1 48957U 21059CG  26202.08324934  .00037085  00000-0  28164-3 0  9992","l2":"2 48957  97.6699  44.9888 0005099 180.1984 179.9277 15.72234327283175"},{"id":"52754","name":"HAWK-5C","type":"PAYLOAD","l1":"1 52754U 22057Y   26202.40998415  .00014365  00000-0  23639-3 0  9996","l2":"2 52754  97.6630   4.3201 0002375 315.1982  44.9078 15.52470066231657"},{"id":"52756","name":"HAWK-5B","type":"PAYLOAD","l1":"1 52756U 22057AA  26202.34535949  .00014270  00000-0  23489-3 0  9998","l2":"2 52756  97.6641   2.6058 0003045 301.4147  58.6807 15.52463503231647"}]}